{"fetched_at":"2026-07-23T07:05:40.232Z","source":"https://celestrak.org/NORAD/elements/gp.php?NAME=GHGSAT&FORMAT=JSON","constellation":"ghgsat","records":[{"OBJECT_NAME":"GHGSAT-C1","OBJECT_ID":"2020-061G","EPOCH":"2026-07-22T16:01:28.875648","CLASSIFICATION_TYPE":"U","MEAN_MOTION":15.73916649,"ECCENTRICITY":0.00015818,"INCLINATION":97.2087,"RA_OF_ASC_NODE":290.0227,"ARG_OF_PERICENTER":169.3751,"MEAN_ANOMALY":190.7547,"EPHEMERIS_TYPE":0,"NORAD_CAT_ID":46278,"ELEMENT_SET_NO":999,"REV_AT_EPOCH":32905,"BSTAR":0.00031455205,"MEAN_MOTION_DOT":0.00044523,"MEAN_MOTION_DDOT":0},{"OBJECT_NAME":"GHGSAT-C2","OBJECT_ID":"2021-006DA","EPOCH":"2026-07-22T14:36:03.430656","CLASSIFICATION_TYPE":"U","MEAN_MOTION":15.38170563,"ECCENTRICITY":0.00062715,"INCLINATION":97.2131,"RA_OF_ASC_NODE":250.2706,"ARG_OF_PERICENTER":55.4071,"MEAN_ANOMALY":304.7766,"EPHEMERIS_TYPE":0,"NORAD_CAT_ID":47509,"ELEMENT_SET_NO":999,"REV_AT_EPOCH":30529,"BSTAR":0.00016313939,"MEAN_MOTION_DOT":0.00006054,"MEAN_MOTION_DDOT":0},{"OBJECT_NAME":"GHGSAT-C3","OBJECT_ID":"2022-057F","EPOCH":"2026-07-22T21:46:36.509664","CLASSIFICATION_TYPE":"U","MEAN_MOTION":15.34749037,"ECCENTRICITY":0.00056484,"INCLINATION":97.6638,"RA_OF_ASC_NODE":350.9218,"ARG_OF_PERICENTER":9.6129,"MEAN_ANOMALY":350.522,"EPHEMERIS_TYPE":0,"NORAD_CAT_ID":52737,"ELEMENT_SET_NO":999,"REV_AT_EPOCH":23101,"BSTAR":0.00021593597,"MEAN_MOTION_DOT":0.00007191,"MEAN_MOTION_DDOT":0},{"OBJECT_NAME":"GHGSAT-C5","OBJECT_ID":"2022-057N","EPOCH":"2026-07-22T22:43:25.933152","CLASSIFICATION_TYPE":"U","MEAN_MOTION":15.34725194,"ECCENTRICITY":0.00063239,"INCLINATION":97.6724,"RA_OF_ASC_NODE":352.5778,"ARG_OF_PERICENTER":6.1737,"MEAN_ANOMALY":353.9583,"EPHEMERIS_TYPE":0,"NORAD_CAT_ID":52744,"ELEMENT_SET_NO":999,"REV_AT_EPOCH":23102,"BSTAR":0.0002129846,"MEAN_MOTION_DOT":0.00007087,"MEAN_MOTION_DDOT":0},{"OBJECT_NAME":"GHGSAT-C4","OBJECT_ID":"2022-057Q","EPOCH":"2026-07-22T22:16:32.841696","CLASSIFICATION_TYPE":"U","MEAN_MOTION":15.3473533,"ECCENTRICITY":0.00054541,"INCLINATION":97.6564,"RA_OF_ASC_NODE":349.7386,"ARG_OF_PERICENTER":351.2896,"MEAN_ANOMALY":8.8251,"EPHEMERIS_TYPE":0,"NORAD_CAT_ID":52746,"ELEMENT_SET_NO":999,"REV_AT_EPOCH":23102,"BSTAR":0.00020880025,"MEAN_MOTION_DOT":0.00006947,"MEAN_MOTION_DDOT":0},{"OBJECT_NAME":"GHGSAT-C8","OBJECT_ID":"2023-054J","EPOCH":"2026-07-22T23:23:58.073280","CLASSIFICATION_TYPE":"U","MEAN_MOTION":15.53951932,"ECCENTRICITY":0.00017515,"INCLINATION":97.2944,"RA_OF_ASC_NODE":113.8281,"ARG_OF_PERICENTER":323.9494,"MEAN_ANOMALY":36.1641,"EPHEMERIS_TYPE":0,"NORAD_CAT_ID":56186,"ELEMENT_SET_NO":999,"REV_AT_EPOCH":18399,"BSTAR":0.00029045916,"MEAN_MOTION_DOT":0.00018663,"MEAN_MOTION_DDOT":0},{"OBJECT_NAME":"GHGSAT-C6","OBJECT_ID":"2023-054AC","EPOCH":"2026-07-22T22:35:30.412608","CLASSIFICATION_TYPE":"U","MEAN_MOTION":15.53924105,"ECCENTRICITY":0.00032012,"INCLINATION":97.3005,"RA_OF_ASC_NODE":114.5033,"ARG_OF_PERICENTER":257.1539,"MEAN_ANOMALY":102.9358,"EPHEMERIS_TYPE":0,"NORAD_CAT_ID":56204,"ELEMENT_SET_NO":999,"REV_AT_EPOCH":18400,"BSTAR":0.00027456619,"MEAN_MOTION_DOT":0.00017618,"MEAN_MOTION_DDOT":0},{"OBJECT_NAME":"GHGSAT-C7","OBJECT_ID":"2023-054AH","EPOCH":"2026-07-22T21:24:30.693024","CLASSIFICATION_TYPE":"U","MEAN_MOTION":15.50570788,"ECCENTRICITY":0.00048323,"INCLINATION":97.2957,"RA_OF_ASC_NODE":112.7266,"ARG_OF_PERICENTER":264.6031,"MEAN_ANOMALY":95.4669,"EPHEMERIS_TYPE":0,"NORAD_CAT_ID":56209,"ELEMENT_SET_NO":999,"REV_AT_EPOCH":18392,"BSTAR":0.00021310693,"MEAN_MOTION_DOT":0.00012098,"MEAN_MOTION_DDOT":0},{"OBJECT_NAME":"GHGSAT-C12","OBJECT_ID":"2025-135B","EPOCH":"2026-07-22T20:29:37.471488","CLASSIFICATION_TYPE":"U","MEAN_MOTION":15.204801,"ECCENTRICITY":0.00061262,"INCLINATION":97.4771,"RA_OF_ASC_NODE":318.3547,"ARG_OF_PERICENTER":60.8335,"MEAN_ANOMALY":299.3512,"EPHEMERIS_TYPE":0,"NORAD_CAT_ID":64529,"ELEMENT_SET_NO":999,"REV_AT_EPOCH":6024,"BSTAR":0.00014857879,"MEAN_MOTION_DOT":0.00003176,"MEAN_MOTION_DDOT":0},{"OBJECT_NAME":"GHGSAT-C13","OBJECT_ID":"2025-135W","EPOCH":"2026-07-22T20:04:57.051552","CLASSIFICATION_TYPE":"U","MEAN_MOTION":15.2146276,"ECCENTRICITY":0.00015071,"INCLINATION":97.4799,"RA_OF_ASC_NODE":318.9673,"ARG_OF_PERICENTER":61.8511,"MEAN_ANOMALY":298.2877,"EPHEMERIS_TYPE":0,"NORAD_CAT_ID":64548,"ELEMENT_SET_NO":999,"REV_AT_EPOCH":6027,"BSTAR":0.00026775693,"MEAN_MOTION_DOT":0.00005949,"MEAN_MOTION_DDOT":0}]}
