{"epoch":1784799577,"count":18318,"objects":[{"id":"46278","name":"GHGSAT-C1","type":"PAYLOAD","l1":"1 46278U 20061G   26203.66769532  .00044523  00000-0  31455-3 0  9992","l2":"2 46278  97.2087 290.0227 0001582 169.3751 190.7547 15.73916649329055"},{"id":"47509","name":"GHGSAT-C2","type":"PAYLOAD","l1":"1 47509U 21006DA  26203.60837304  .00006054  00000-0  16314-3 0  9991","l2":"2 47509  97.2131 250.2706 0006271  55.4071 304.7766 15.38170563305291"},{"id":"52737","name":"GHGSAT-C3","type":"PAYLOAD","l1":"1 52737U 22057F   26203.90736701  .00007191  00000-0  21594-3 0  9998","l2":"2 52737  97.6638 350.9218 0005648   9.6129 350.5220 15.34749037231010"},{"id":"52744","name":"GHGSAT-C5","type":"PAYLOAD","l1":"1 52744U 22057N   26203.94682793  .00007087  00000-0  21298-3 0  9996","l2":"2 52744  97.6724 352.5778 0006324   6.1737 353.9583 15.34725194231020"},{"id":"52746","name":"GHGSAT-C4","type":"PAYLOAD","l1":"1 52746U 22057Q   26203.92815789  .00006947  00000-0  20880-3 0  9999","l2":"2 52746  97.6564 349.7386 0005454 351.2896   8.8251 15.34735330231021"},{"id":"56186","name":"GHGSAT-C8","type":"PAYLOAD","l1":"1 56186U 23054J   26203.97497770  .00018663  00000-0  29046-3 0  9991","l2":"2 56186  97.2944 113.8281 0001751 323.9494  36.1641 15.53951932183999"},{"id":"56204","name":"GHGSAT-C6","type":"PAYLOAD","l1":"1 56204U 23054AC  26203.94132422  .00017618  00000-0  27457-3 0  9992","l2":"2 56204  97.3005 114.5033 0003201 257.1539 102.9358 15.53924105184004"},{"id":"56209","name":"GHGSAT-C7","type":"PAYLOAD","l1":"1 56209U 23054AH  26203.89202191  .00012098  00000-0  21311-3 0  9992","l2":"2 56209  97.2957 112.7266 0004832 264.6031  95.4669 15.50570788183925"},{"id":"64529","name":"GHGSAT-C12","type":"PAYLOAD","l1":"1 64529U 25135B   26203.85390592  .00003176  00000-0  14858-3 0  9992","l2":"2 64529  97.4771 318.3547 0006126  60.8335 299.3512 15.20480100 60248"},{"id":"64548","name":"GHGSAT-C13","type":"PAYLOAD","l1":"1 64548U 25135W   26203.83677143  .00005949  00000-0  26776-3 0  9993","l2":"2 64548  97.4799 318.9673 0001507  61.8511 298.2877 15.21462760 60278"}]}